TRANSIT 16 [?]          
1 02807U 67048A   14039.46167074  .00000141  00000-0  20558-3 0   545
2 02807  89.6726 148.2855 0019764  22.3889  25.7032 13.49955039299589
TRANSIT 17 [?]          
1 02965U 67092A   14040.46243230  .00000100  00000-0  13243-3 0  2641
2 02965  89.2574 353.1412 0047974 182.8334 316.2120 13.52675905286675
TRANSIT 18 [?]          
1 03133U 68012A   14040.68295128  .00000151  00000-0  21400-3 0  6519
2 03133  89.9554 280.6081 0076809  90.9773 322.3963 13.50777398261829
NNSS 19 [?]             
1 04507U 70067A   14040.18637148  .00000132  00000-0  17484-3 0  3439
2 04507  89.8239 284.3301 0172061 212.2489 261.1867 13.50419288138816
NNSS O-20 [?]           
1 06909U 73081A   14040.89599019  .00000265  00000-0  26285-3 0  8338
2 06909  89.8568 333.1571 0159791  67.4551   1.7552 13.70127576211624
TRANSAT [?]             
1 10457U 77106A   14040.02951686  .00000089  00000-0  12621-3 0  6702
2 10457  89.7534 200.7612 0026798  61.6465  52.9544 13.48429404784752
NOVA I [?]              
1 12458U 81044A   14040.17216802  .00000064  00000-0  13269-3 0  1001
2 12458  90.0081 123.6989 0016278 142.2272 274.4492 13.22844449580312
NOVA 3 [?]              
1 15362U 84110A   14040.12589354  .00000088  00000-0  18906-3 0  7178
2 15362  90.0162  51.0250 0031691   9.9745  31.1076 13.22618915415538
OSCAR 30 [?]            
1 15935U 85066A   14040.55056521  .00000096  00000-0  15659-3 0  3309
2 15935  90.1007  36.1180 0169816  39.3918  93.3320 13.35454017387354
OSCAR 24 [?]            
1 15936U 85066B   14040.09774506  .00000097  00000-0  15934-3 0   684
2 15936  90.0896  31.3535 0170867  44.3883   7.8924 13.35341116389409
POLAR BEAR [?]          
1 17070U 86088A   14039.90868449  .00000096  00000-0  88710-4 0  2479
2 17070  89.5385  25.8233 0038822 192.7880 196.2744 13.74552485365838
OSCAR 27 [?]            
1 18361U 87080A   14040.15788697  .00000128  00000-0  19998-3 0  2748
2 18361  90.3597 293.4045 0105140   4.2229 355.9781 13.44269436294714
OSCAR 29 [?]            
1 18362U 87080B   14040.19843472  .00000113  00000-0  17547-3 0  5291
2 18362  90.3602 293.5993 0107173  18.1908 135.1202 13.43877662294431
OSCAR 23 [?]            
1 19070U 88033A   14039.61712556  .00000046  00000-0  80380-4 0  8586
2 19070  90.3200 232.2198 0188448 324.3599  74.6208 13.27273891248989
OSCAR 32 [?]            
1 19071U 88033B   14040.56387255  .00000101  00000-0  19167-3 0  1025
2 19071  90.3199 232.3307 0186654 312.0416 106.2169 13.27466213249306
NOVA 11 [?]             
1 19223U 88052A   14038.72931311  .00000080  00000-0  17011-3 0  2706
2 19223  89.9759  90.6956 0031856  55.9007  82.7899 13.22541264237870
OSCAR 25 [?]            
1 19419U 88074A   14039.55240810  .00000116  00000-0  18547-3 0  5197
2 19419  89.9649  21.8751 0095544 340.2797 145.8193 13.42003862246466
OSCAR 31 [?]            
1 19420U 88074B   14039.88392157  .00000095  00000-0  15014-3 0  1937
2 19420  89.9653  21.8384 0093496 333.5794  84.0213 13.42031061246617
